     2.100          NAVIGATION                              RINEX VERSION / TYPE
fic2rin                                 01/05/2012 00:43:44 PGM / RUN BY / DATE
                                                            END OF HEADER
31 12  1  4  4  0  0.0  .191108323634D-03  .477484718431D-11  .000000000000D+00
     .780000000000D+02 -.674687500000D+02  .418624580251D-08  .286465100110D+01
    -.329129397869D-05  .801298778970D-02  .462681055069D-05  .515356324196D+04
     .273600000000D+06  .111758708954D-06 -.172394769469D+01  .189989805222D-06
     .980398168170D+00  .299531250000D+03 -.934739378710D+00 -.795747431789D-08
    -.153577825704D-09  .100000000000D+01  .166900000000D+04  .000000000000D+00
     .240000000000D+01  .000000000000D+00 -.130385160446D-07  .780000000000D+02
     .266406000000D+06  .400000000000D+01
32 12  1  4  4  0  0.0 -.387422740459D-03 -.579802872380D-11  .000000000000D+00
     .510000000000D+02  .935000000000D+02  .436518182734D-08 -.273989935843D+01
     .492110848427D-05  .119707942940D-01  .944919884205D-05  .515377485275D+04
     .273600000000D+06 -.521540641785D-07  .253742621367D+01  .169500708580D-06
     .952929245054D+00  .190031250000D+03 -.639521974886D+00 -.778032408173D-08
    -.585738684082D-10  .100000000000D+01  .166900000000D+04  .000000000000D+00
     .240000000000D+01  .000000000000D+00 -.279396772385D-08  .510000000000D+02
     .266406000000D+06  .400000000000D+01
28 12  1  4  3 59 44.0  .993791036308D-04  .363797880709D-11  .000000000000D+00
     .200000000000D+01 -.569687500000D+02  .417410243955D-08  .342971298246D-01
    -.285170972347D-05  .177380428649D-01  .886991620064D-05  .515370779228D+04
     .273584000000D+06 -.173225998878D-06 -.645175911881D+00  .121071934700D-06
     .977423846518D+00  .221125000000D+03 -.185850950215D+01 -.808605110220D-08
     .118576367753D-09  .100000000000D+01  .166900000000D+04  .000000000000D+00
     .240000000000D+01  .000000000000D+00 -.107102096081D-07  .200000000000D+01
     .270636000000D+06  .400000000000D+01
29 12  1  4  3 59 44.0  .271943863481D-03  .341060513165D-11  .000000000000D+00
     .000000000000D+00 -.768750000000D+01  .464305054455D-08  .219972989665D+01
    -.467523932457D-06  .215017923620D-02  .690482556820D-05  .515365436363D+04
     .273584000000D+06  .372529029846D-07  .397374513752D+00  .931322574615D-08
     .962909632068D+00  .246593750000D+03 -.119224554716D+01 -.796176021070D-08
     .176435920693D-09  .100000000000D+01  .166900000000D+04  .000000000000D+00
     .240000000000D+01  .000000000000D+00 -.931322574615D-08  .000000000000D+00
     .270666000000D+06  .400000000000D+01
28 12  1  4  5 59 44.0  .994051806629D-04  .363797880709D-11  .000000000000D+00
     .300000000000D+01 -.709687500000D+02  .410624247005D-08  .108435419042D+01
    -.369362533092D-05  .177402888658D-01  .982917845249D-05  .515371327591D+04
     .280784000000D+06 -.348314642906D-06 -.645234359847D+00 -.186264514923D-08
     .977424795952D+00  .206656250000D+03 -.185841025779D+01 -.800676208521D-08
     .168221292806D-09  .100000000000D+01  .166900000000D+04  .000000000000D+00
     .240000000000D+01  .000000000000D+00 -.107102096081D-07  .300000000000D+01
     .273606000000D+06  .400000000000D+01
29 12  1  4  5 59 44.0  .271968077868D-03  .341060513165D-11  .000000000000D+00
     .200000000000D+01 -.646875000000D+01  .462269255370D-08 -.303333299552D+01
    -.406056642532D-06  .215001706965D-02  .693649053574D-05  .515365475845D+04
     .280784000000D+06  .111758708954D-07  .397316983036D+00  .670552253723D-07
     .962911021841D+00  .245156250000D+03 -.119217449908D+01 -.795425989828D-08
     .220366321999D-09  .100000000000D+01  .166900000000D+04  .000000000000D+00
     .240000000000D+01  .000000000000D+00 -.931322574615D-08  .200000000000D+01
     .273606000000D+06  .400000000000D+01
 1 12  1  4  6  0  0.0  .168420840055D-03  .138697942020D-10  .000000000000D+00
     .940000000000D+02 -.381250000000D+01  .460554898246D-08 -.276189274303D+01
    -.122934579849D-06  .585241941735D-03  .770948827267D-05  .515365582466D+04
     .280800000000D+06 -.111758708954D-07  .139603111085D+01  .149011611938D-07
     .959730731563D+00  .231406250000D+03  .115746637705D+01 -.793318759196D-08
    -.326085011321D-09  .100000000000D+01  .166900000000D+04  .000000000000D+00
     .340000000000D+01  .000000000000D+00  .791624188423D-08  .940000000000D+02
     .273606000000D+06  .400000000000D+01
 2 12  1  4  6  0  0.0  .373191665858D-03  .170530256582D-11  .000000000000D+00
     .720000000000D+02 -.120625000000D+02  .523736101425D-08 -.838429227577D+00
    -.676140189171D-06  .107658195775D-01  .712834298611D-05  .515361682510D+04
     .280800000000D+06  .301748514175D-06  .138541243951D+01 -.134110450745D-06
     .938312162594D+00  .232187500000D+03 -.289340574875D+01 -.829855995405D-08
    -.346443002170D-09  .100000000000D+01  .166900000000D+04  .000000000000D+00
     .240000000000D+01  .000000000000D+00 -.176951289177D-07  .720000000000D+02
     .273606000000D+06  .400000000000D+01
 3 12  1  4  6  0  0.0  .817504711449D-03  .511590769747D-11  .000000000000D+00
     .790000000000D+02 -.490625000000D+01  .550987236544D-08 -.704851254467D+00
    -.106170773506D-06  .149526316673D-01  .710412859917D-05  .515369243240D+04
     .280800000000D+06 -.115483999252D-06  .223886461861D+00  .245869159698D-06
     .930498867813D+00  .226656250000D+03  .116429180860D+01 -.866000358105D-08
     .237152735506D-09  .100000000000D+01  .166900000000D+04  .000000000000D+00
     .240000000000D+01  .000000000000D+00 -.465661287308D-08  .790000000000D+02
     .273606000000D+06  .400000000000D+01
 4 12  1  4  6  0  0.0  .530714169145D-04  .113686837722D-10  .000000000000D+00
     .320000000000D+02 -.132187500000D+02  .519271629748D-08  .227275911388D+01
    -.894069671631D-06  .100140909199D-01  .763870775700D-05  .515376589203D+04
     .280800000000D+06 -.596046447754D-07  .140250028820D+01 -.204890966415D-06
     .937375097733D+00  .222125000000D+03  .820025551367D+00 -.818391232137D-08
    -.364658046614D-09  .100000000000D+01  .166900000000D+04  .000000000000D+00
     .240000000000D+01  .000000000000D+00 -.651925802231D-08  .320000000000D+02
     .273606000000D+06  .400000000000D+01
 5 12  1  4  6  0  0.0 -.266290269792D-03 -.466116034659D-11  .000000000000D+00
     .750000000000D+02  .694375000000D+02  .443125600817D-08  .104651324542D+01
     .374205410480D-05  .266051455401D-02  .953301787376D-05  .515358584213D+04
     .280800000000D+06 -.409781932831D-07  .244840193292D+01  .521540641785D-07
     .952174699704D+00  .189437500000D+03  .273632727821D+00 -.792140138673D-08
    -.161792453591D-09  .100000000000D+01  .166900000000D+04  .000000000000D+00
     .240000000000D+01  .000000000000D+00 -.102445483208D-07  .750000000000D+02
     .273606000000D+06  .400000000000D+01
 6 12  1  4  6  0  0.0  .214814208448D-04  .318323145621D-11  .000000000000D+00
     .810000000000D+02 -.100937500000D+02  .526950521033D-08  .123894153384D+01
    -.584870576859D-06  .685571134090D-02  .653415918350D-05  .515369786453D+04
     .280800000000D+06  .139698386192D-06  .299316814810D+00  .149011611938D-07
     .937440892473D+00  .235687500000D+03 -.627600757862D+00 -.830034574272D-08
     .160006664920D-09  .100000000000D+01  .166900000000D+04  .000000000000D+00
     .340000000000D+01  .000000000000D+00 -.512227416039D-08  .810000000000D+02
     .273606000000D+06  .400000000000D+01
 7 12  1  4  6  0  0.0  .476371496916D-04  .250111042988D-11  .000000000000D+00
     .600000000000D+01 -.740312500000D+02  .430696511667D-08 -.238487834629D+01
    -.383518636227D-05  .507662107702D-02  .447593629360D-05  .515362729073D+04
     .280800000000D+06 -.316649675369D-07 -.172627733029D+01 -.763684511185D-07
     .975301734626D+00  .304281250000D+03 -.300292905351D+01 -.807247910830D-08
    -.875036448780D-10  .100000000000D+01  .166900000000D+04  .000000000000D+00
     .240000000000D+01  .000000000000D+00 -.111758708954D-07  .600000000000D+01
     .273606000000D+06  .400000000000D+01
 8 12  1  4  6  0  0.0  .281725078821D-06  .113686837722D-12  .000000000000D+00
     .930000000000D+02 -.831875000000D+02  .375908515241D-08 -.294014427270D+01
    -.421516597271D-05  .120885102078D-01  .516138970852D-05  .515372227669D+04
     .280800000000D+06 -.147148966789D-06 -.164600838603D+01 -.521540641785D-07
     .997267164317D+00  .302625000000D+03 -.298457716314D+01 -.766281918718D-08
    -.109290266664D-09  .100000000000D+01  .166900000000D+04  .000000000000D+00
     .240000000000D+01  .000000000000D+00 -.419095158577D-08  .930000000000D+02
     .273606000000D+06  .400000000000D+01
 9 12  1  4  6  0  0.0  .129498075694D-03  .250111042988D-11  .000000000000D+00
     .710000000000D+02 -.610937500000D+02  .407409827397D-08 -.303164906271D+01
    -.322982668877D-05  .171632223064D-01  .355206429958D-05  .515364211273D+04
     .280800000000D+06  .271946191788D-06 -.175308783494D+01  .279396772385D-07
     .984110862613D+00  .321562500000D+03  .160302321103D+01 -.771210695450D-08
    -.489306095849D-10  .100000000000D+01  .166900000000D+04  .000000000000D+00
     .340000000000D+01  .000000000000D+00 -.558793544769D-08  .710000000000D+02
     .273606000000D+06  .400000000000D+01
10 12  1  4  6  0  0.0 -.244178809226D-04 -.125055521494D-11  .000000000000D+00
     .730000000000D+02  .733125000000D+02  .460876340207D-08  .144540444827D+01
     .383891165257D-05  .110462659504D-01  .993534922600D-05  .515366739273D+04
     .280800000000D+06 -.145286321640D-06  .247079835437D+01  .782310962677D-07
     .947095878231D+00  .181500000000D+03  .731610826162D+00 -.813926760459D-08
    -.238938524177D-09  .100000000000D+01  .166900000000D+04  .000000000000D+00
     .340000000000D+01  .000000000000D+00 -.279396772385D-08  .730000000000D+02
     .273606000000D+06  .400000000000D+01
